[{"OBJECT_NAME":"STARLINK-1559","OBJECT_ID":"2020-055BC","EPOCH":"2026-03-09T05:36:23.522976","MEAN_MOTION":15.29461733,"ECCENTRICITY":0.0004229,"INCLINATION":53.0254,"RA_OF_ASC_NODE":76.0659,"ARG_OF_PERICENTER":33.971,"MEAN_ANOMALY":326.1559,"EPHEMERIS_TYPE":0,"CLASSIFICATION_TYPE":"U","NORAD_CAT_ID":46077,"ELEMENT_SET_NO":999,"REV_AT_EPOCH":30951,"BSTAR":0.0014778793,"MEAN_MOTION_DOT":0.00042685,"MEAN_MOTION_DDOT":0},{"OBJECT_NAME":"STARLINK-35770","OBJECT_ID":"2025-288U","EPOCH":"2026-03-09T22:37:22.412064","MEAN_MOTION":15.27582343,"ECCENTRICITY":0.00015391,"INCLINATION":43.0014,"RA_OF_ASC_NODE":22.235,"ARG_OF_PERICENTER":249.4782,"MEAN_ANOMALY":110.5905,"EPHEMERIS_TYPE":0,"CLASSIFICATION_TYPE":"U","NORAD_CAT_ID":66977,"ELEMENT_SET_NO":999,"REV_AT_EPOCH":1532,"BSTAR":0.00085927539,"MEAN_MOTION_DOT":0.0002346,"MEAN_MOTION_DDOT":0}]
